STARLINK-31593          
1 59350U 24060C   26068.53484944 -.00001013  00000+0 -27294-4 0  9991
2 59350  43.0021 260.3484 0001082 292.7870  67.2868 15.27569226110045
HAWK-11C                
1 62381U 24247E   26068.51221537  .00009223  00000+0  33290-3 0  9992
2 62381  45.0045 114.8762 0005900 329.7040  30.3502 15.28848020 67743
